COSMOS 2251 DEB         
1 35674U 93036APR 17346.57208484  .00000707  00000-0  24007-3 0  9995
2 35674  74.0681 295.0748 0131381 358.6644 117.3129 14.33762124441850
